OBJECT_NAME,OBJECT_ID,EPOCH,MEAN_MOTION,ECCENTRICITY,INCLINATION,RA_OF_ASC_NODE,ARG_OF_PERICENTER,MEAN_ANOMALY,EPHEMERIS_TYPE,CLASSIFICATION_TYPE,NORAD_CAT_ID,ELEMENT_SET_NO,REV_AT_EPOCH,BSTAR,MEAN_MOTION_DOT,MEAN_MOTION_DDOT
2022-023F,2022-023F,2026-07-17T23:25:33.395808,15.17864691,.01334707,63.4455,168.8162,341.6260,18.0054,0,U,51951,999,24238,.2516004E-3,.6211E-4,0
MERIDIAN 10,2022-030A,2026-07-17T09:02:14.338176,2.00609112,.67925205,62.6775,137.5348,272.8417,17.5963,0,U,52145,999,3163,0,.137E-5,0
OMNI-L1,2022-033A,2026-07-17T11:28:09.499008,14.82848847,.0005526,97.8390,277.0674,170.5974,189.5344,0,U,52157,999,23194,.11345E-3,.866E-5,0
ENMAP,2022-033C,2026-07-17T23:09:08.537760,14.74940550,.00012789,97.9792,280.7760,81.6739,278.4615,0,U,52159,999,23119,-.27361317E-4,-.234E-5,0
ARCSAT-1,2022-033E,2026-07-17T21:43:54.211584,15.54320794,.00063281,97.2752,291.6509,90.0005,270.1974,0,U,52161,999,24047,.10900182E-3,.7033E-4,0
GLOBAL-18,2022-034B,2026-07-17T18:02:39.513408,15.47293414,.00045653,52.9816,110.4460,31.8814,328.2468,0,U,52196,999,24169,.26089459E-3,.13112E-3,0
GAOFEN-3 03,2022-035A,2026-07-17T23:08:18.908736,14.42217834,.00017417,98.4063,207.0983,87.3651,272.7738,0,U,52200,999,22528,-.43609071E-4,-.187E-5,0
DAQI-1,2022-039A,2026-07-17T23:10:52.415616,14.57693190,.00041635,98.1489,137.1830,140.7051,219.4451,0,U,52257,999,22642,.22590872E-4,.58E-6,0
BRO-6,2022-047AE,2026-07-17T21:35:14.995968,15.52710345,.00027864,97.3386,290.5920,294.0619,66.0342,0,U,52422,999,23591,.43254549E-3,.26647E-3,0
JILIN-1 GAOFEN 3D27,2022-048B,2026-07-17T21:11:45.061152,15.83784249,.00056611,97.5739,315.8043,239.2282,120.8430,0,U,52444,999,23432,.59661926E-3,.133126E-2,0
JILIN-1 GAOFEN 3D28,2022-048C,2026-07-17T19:19:19.483968,15.89052072,.00051975,97.5666,316.0387,239.9032,120.1725,0,U,52445,999,23437,.6284143E-3,.177708E-2,.13512701E-4
VIGORIDE-3,2022-057AE,2026-07-17T21:01:17.430816,15.27564844,.00086584,97.6648,339.6763,26.1798,333.9876,0,U,52760,999,22984,.10607805E-3,.2783E-4,0
ION SCV-006,2022-057AF,2026-07-17T21:59:42.556992,15.45958646,.00165147,97.6140,349.0341,7.9095,352.2411,0,U,52761,999,23086,.14081825E-3,.6795E-4,0
SHERPA-AC1,2022-057AH,2026-07-17T22:28:48.520416,15.36653308,.0006937,97.6727,349.4596,353.8521,6.2636,0,U,52763,999,23042,.11134852E-3,.3899E-4,0
OMNI-L2,2022-057AR,2026-07-17T14:02:50.142912,14.81440792,.0005858,97.4700,258.8995,211.3497,148.7369,0,U,52771,999,22489,.75437E-4,.543E-5,0
STEP CUBE LAB-II,2022-065D,2026-07-17T21:44:42.878976,14.63345011,.00073091,98.2267,342.7193,292.7048,67.3380,0,U,52897,999,21599,.70984916E-4,.318E-5,0
RANDEV,2022-065E,2026-07-17T21:34:32.905344,14.63733956,.00066806,98.2250,343.0776,293.4490,66.6009,0,U,52898,999,21574,.85827104E-4,.399E-5,0
SNUGLITE-II,2022-065F,2026-07-17T20:20:24.289440,14.64396767,.0006169,98.2240,343.6305,290.5081,69.5459,0,U,52899,999,21548,.88366292E-4,.419E-5,0
MIMAN,2022-065G,2026-07-17T22:01:30.660672,14.61873138,.00063476,98.2299,341.2519,293.5607,66.4927,0,U,52900,999,21493,.53125383E-4,.218E-5,0
STARLINK-4362,2022-077A,2026-07-17T21:40:12.529920,15.05656056,.00013546,97.2861,16.2027,101.2947,258.8433,0,U,53043,999,22050,.18971693E-4,.218E-5,0
LARES-2,2022-080A,2026-07-11T06:32:52.952640,6.38965058,.00051703,70.1562,297.0691,331.4390,28.5953,0,U,53105,999,9320,0,-.16E-6,0
GREENCUBE (IO-117),2022-080E,2026-07-17T05:19:51.690720,6.42583336,.0009072,70.1407,287.8015,282.9900,76.9746,0,U,53109,999,9399,0,-.3E-7,0
STARLINK-4410,2022-084R,2026-07-17T22:00:01.999584,15.41218611,.00011111,97.6009,261.1155,73.3869,303.8711,0,U,53204,999,590,-.12717003E-1,-.495109E-2,0
COSMOS 2558,2022-089A,2026-07-17T16:48:07.147008,15.82203532,.0004147,97.2237,304.1648,223.1176,136.9769,0,U,53323,999,22264,.49405E-3,.101952E-2,0
TECMS,2022-090A,2026-07-17T22:33:50.140224,15.21243619,.00054417,97.3123,266.1755,78.4081,281.7765,0,U,53346,999,21948,.83966857E-4,.1808E-4,0
DONGPO 02,2022-098J,2026-07-17T22:21:32.430240,15.81717540,.00045586,97.5565,332.9623,211.3100,148.7897,0,U,53452,999,21964,.54190153E-3,.109469E-2,0
DONGPO 01,2022-098K,2026-07-17T21:49:42.008736,15.78581278,.00029257,97.5626,333.3653,203.1402,156.9733,0,U,53453,999,21959,.52972041E-3,.9259E-3,0
STARLINK-4400,2022-099D,2026-07-17T21:10:18.714720,15.05657575,.00015694,97.2844,316.2629,128.1621,231.9748,0,U,53468,999,21556,.33691851E-4,.43E-5,0
STARLINK-4621,2022-105AE,2026-07-17T02:05:54.110976,15.05659141,.00016523,97.2839,75.5290,92.3382,267.8035,0,U,53676,999,21270,-.5146447E-5,-.131E-5,0
