2022-023F               
1 51951U 22023F   26198.97608097  .00006211  00000+0  25160-3 0  9998
2 51951  63.4455 168.8162 0133470 341.6260  18.0054 15.17864691242387
MERIDIAN 10             
1 52145U 22030A   26198.37655484  .00000137  00000+0  00000+0 0  9991
2 52145  62.6775 137.5348 6792520 272.8417  17.5963  2.00609112 31630
OMNI-L1                 
1 52157U 22033A   26198.47788772  .00000866  00000+0  11345-3 0  9992
2 52157  97.8390 277.0674 0005526 170.5974 189.5344 14.82848847231949
ENMAP                   
1 52159U 22033C   26198.96468215 -.00000234  00000+0 -27361-4 0  9992
2 52159  97.9792 280.7760 0001278  81.6739 278.4615 14.74940550231197
ARCSAT-1                
1 52161U 22033E   26198.90548856  .00007033  00000+0  10900-3 0  9991
2 52161  97.2752 291.6509 0006328  90.0005 270.1974 15.54320794240471
GLOBAL-18               
1 52196U 22034B   26198.75184622  .00013112  00000+0  26089-3 0  9990
2 52196  52.9816 110.4460 0004565  31.8814 328.2468 15.47293414241692
GAOFEN-3 03             
1 52200U 22035A   26198.96410774 -.00000187  00000+0 -43609-4 0  9998
2 52200  98.4063 207.0983 0001741  87.3651 272.7738 14.42217834225284
DAQI-1                  
1 52257U 22039A   26198.96588444  .00000058  00000+0  22591-4 0  9996
2 52257  98.1489 137.1830 0004163 140.7051 219.4451 14.57693190226424
BRO-6                   
1 52422U 22047AE  26198.89947912  .00026647  00000+0  43255-3 0  9991
2 52422  97.3386 290.5920 0002786 294.0619  66.0342 15.52710345235918
JILIN-1 GAOFEN 3D27     
1 52444U 22048B   26198.88316043  .00133126  00000+0  59662-3 0  9990
2 52444  97.5739 315.8043 0005661 239.2282 120.8430 15.83784249234324
JILIN-1 GAOFEN 3D28     
1 52445U 22048C   26198.80508662  .00177708  13513-4  62841-3 0  9998
2 52445  97.5666 316.0387 0005197 239.9032 120.1725 15.89052072234375
VIGORIDE-3              
1 52760U 22057AE  26198.87589619  .00002783  00000+0  10608-3 0  9992
2 52760  97.6648 339.6763 0008658  26.1798 333.9876 15.27564844229849
ION SCV-006             
1 52761U 22057AF  26198.91646478  .00006795  00000+0  14082-3 0  9992
2 52761  97.6140 349.0341 0016514   7.9095 352.2411 15.45958646230861
SHERPA-AC1              
1 52763U 22057AH  26198.93667269  .00003899  00000+0  11135-3 0  9995
2 52763  97.6727 349.4596 0006937 353.8521   6.2636 15.36653308230429
OMNI-L2                 
1 52771U 22057AR  26198.58530258  .00000543  00000+0  75437-4 0  9991
2 52771  97.4700 258.8995 0005858 211.3497 148.7369 14.81440792224893
STEP CUBE LAB-II        
1 52897U 22065D   26198.90605184  .00000318  00000+0  70985-4 0  9999
2 52897  98.2267 342.7193 0007309 292.7048  67.3380 14.63345011215998
RANDEV                  
1 52898U 22065E   26198.89899196  .00000399  00000+0  85827-4 0  9996
2 52898  98.2250 343.0776 0006680 293.4490  66.6009 14.63733956215744
SNUGLITE-II             
1 52899U 22065F   26198.84750335  .00000419  00000+0  88366-4 0  9997
2 52899  98.2240 343.6305 0006169 290.5081  69.5459 14.64396767215482
MIMAN                   
1 52900U 22065G   26198.91771598  .00000218  00000+0  53125-4 0  9994
2 52900  98.2299 341.2519 0006347 293.5607  66.4927 14.61873138214939
STARLINK-4362           
1 53043U 22077A   26198.90292280  .00000218  00000+0  18972-4 0  9992
2 53043  97.2861  16.2027 0001354 101.2947 258.8433 15.05656056220506
LARES-2                 
1 53105U 22080A   26192.27283510 -.00000016  00000+0  00000+0 0  9990
2 53105  70.1562 297.0691 0005170 331.4390  28.5953  6.38965058 93203
GREENCUBE (IO-117)      
1 53109U 22080E   26198.22212605 -.00000003  00000+0  00000+0 0  9998
2 53109  70.1407 287.8015 0009072 282.9900  76.9746  6.42583336 93997
STARLINK-4410           
1 53204U 22084R   26198.91668981 -.00495109  00000+0 -12717-1 0  9992
2 53204  97.6009 261.1155 0001111  73.3869 303.8711 15.41218611  5905
COSMOS 2558             
1 53323U 22089A   26198.70008272  .00101952  00000+0  49405-3 0  9991
2 53323  97.2237 304.1648 0004147 223.1176 136.9769 15.82203532222640
TECMS                   
1 53346U 22090A   26198.94016366  .00001808  00000+0  83967-4 0  9998
2 53346  97.3123 266.1755 0005441  78.4081 281.7765 15.21243619219486
DONGPO 02               
1 53452U 22098J   26198.93162535  .00109469  00000+0  54190-3 0  9990
2 53452  97.5565 332.9623 0004558 211.3100 148.7897 15.81717540219641
DONGPO 01               
1 53453U 22098K   26198.90951399  .00092590  00000+0  52972-3 0  9994
2 53453  97.5626 333.3653 0002925 203.1402 156.9733 15.78581278219595
STARLINK-4400           
1 53468U 22099D   26198.88216105  .00000430  00000+0  33692-4 0  9998
2 53468  97.2844 316.2629 0001569 128.1621 231.9748 15.05657575215562
STARLINK-4621           
1 53676U 22105AE  26198.08743184 -.00000131  00000+0 -51464-5 0  9999
2 53676  97.2839  75.5290 0001652  92.3382 267.8035 15.05659141212706
